{
  "type": "FeatureCollection",
  "features": [
    {
      "type": "Feature",
      "properties": {
        "norad_id": 37836,
        "name": "EUTELSAT 16A",
        "group": "eutelsat",
        "lat": 0.024480942777278893,
        "lon": -4.811315457293028,
        "alt_km": 35788.83256899682,
        "timestamp": "2025-12-02T17:49:11.697080+00:00",
        "meta_object_name": "EUTELSAT 16A",
        "meta_object_id": "2011-057A",
        "meta_epoch": "2025-12-02T08:43:09.139008",
        "meta_mean_motion": 1.00273368,
        "meta_eccentricity": 0.0006043,
        "meta_inclination": 0.0594,
        "meta_ra_of_asc_node": 344.9818,
        "meta_arg_of_pericenter": 273.0122,
        "meta_mean_anomaly": 320.2668,
        "meta_ephemeris_type": 0,
        "meta_classification_type": "U",
        "meta_norad_cat_id": 37836,
        "meta_element_set_no": 999,
        "meta_rev_at_epoch": 535,
        "meta_bstar": 0,
        "meta_mean_motion_dot": 1.25e-06,
        "meta_mean_motion_ddot": 0,
        "tle_line1": "1 37836U 11057A   25336.36330022  .00000125  00000+0  00000+0 0  9995",
        "tle_line2": "2 37836   0.0594 344.9818 0006043 273.0122 320.2668  1.00273368  5354"
      },
      "geometry": {
        "type": "Point",
        "coordinates": [
          -4.811315457293028,
          0.024480942777278893
        ]
      }
    },
    {
      "type": "Feature",
      "properties": {
        "norad_id": 38992,
        "name": "EUTELSAT 21B",
        "group": "eutelsat",
        "lat": 0.03618687276705441,
        "lon": 0.7554081854498558,
        "alt_km": 35787.25181318447,
        "timestamp": "2025-12-02T17:49:11.697092+00:00",
        "meta_object_name": "EUTELSAT 21B",
        "meta_object_id": "2012-062B",
        "meta_epoch": "2025-12-02T07:02:18.796704",
        "meta_mean_motion": 1.00273023,
        "meta_eccentricity": 0.000332,
        "meta_inclination": 0.0686,
        "meta_ra_of_asc_node": 343.5822,
        "meta_arg_of_pericenter": 280.8822,
        "meta_mean_anomaly": 294.1155,
        "meta_ephemeris_type": 0,
        "meta_classification_type": "U",
        "meta_norad_cat_id": 38992,
        "meta_element_set_no": 999,
        "meta_rev_at_epoch": 4785,
        "meta_bstar": 0,
        "meta_mean_motion_dot": 1.51e-06,
        "meta_mean_motion_ddot": 0,
        "tle_line1": "1 38992U 12062B   25336.29327311  .00000151  00000+0  00000+0 0  9994",
        "tle_line2": "2 38992   0.0686 343.5822 0003320 280.8822 294.1155  1.00273023 47857"
      },
      "geometry": {
        "type": "Point",
        "coordinates": [
          0.7554081854498558,
          0.03618687276705441
        ]
      }
    },
    {
      "type": "Feature",
      "properties": {
        "norad_id": 39020,
        "name": "EUTELSAT 70B",
        "group": "eutelsat",
        "lat": 0.0694807634592372,
        "lon": 49.619254814501666,
        "alt_km": 35804.18180640427,
        "timestamp": "2025-12-02T17:49:11.697104+00:00",
        "meta_object_name": "EUTELSAT 70B",
        "meta_object_id": "2012-069A",
        "meta_epoch": "2025-12-02T08:59:00.122208",
        "meta_mean_motion": 1.0027153,
        "meta_eccentricity": 0.0004345,
        "meta_inclination": 0.0625,
        "meta_ra_of_asc_node": 359.2915,
        "meta_arg_of_pericenter": 241.7642,
        "meta_mean_anomaly": 35.6705,
        "meta_ephemeris_type": 0,
        "meta_classification_type": "U",
        "meta_norad_cat_id": 39020,
        "meta_element_set_no": 999,
        "meta_rev_at_epoch": 4753,
        "meta_bstar": 0,
        "meta_mean_motion_dot": -2.3e-07,
        "meta_mean_motion_ddot": 0,
        "tle_line1": "1 39020U 12069A   25336.37430697 -.00000023  00000+0  00000+0 0  9994",
        "tle_line2": "2 39020   0.0625 359.2915 0004345 241.7642  35.6705  1.00271530 47539"
      },
      "geometry": {
        "type": "Point",
        "coordinates": [
          49.619254814501666,
          0.0694807634592372
        ]
      }
    },
    {
      "type": "Feature",
      "properties": {
        "norad_id": 39122,
        "name": "EUTELSAT 117 WEST A",
        "group": "eutelsat",
        "lat": -0.0164517391887451,
        "lon": -137.69488167458272,
        "alt_km": 35774.65667789518,
        "timestamp": "2025-12-02T17:49:11.697116+00:00",
        "meta_object_name": "EUTELSAT 117 WEST A",
        "meta_object_id": "2013-012A",
        "meta_epoch": "2025-12-02T11:40:24.383712",
        "meta_mean_motion": 1.0027179,
        "meta_eccentricity": 0.0003109,
        "meta_inclination": 0.0348,
        "meta_ra_of_asc_node": 53.0625,
        "meta_arg_of_pericenter": 199.2197,
        "meta_mean_anomaly": 237.6188,
        "meta_ephemeris_type": 0,
        "meta_classification_type": "U",
        "meta_norad_cat_id": 39122,
        "meta_element_set_no": 999,
        "meta_rev_at_epoch": 4646,
        "meta_bstar": 0,
        "meta_mean_motion_dot": 7e-08,
        "meta_mean_motion_ddot": 0,
        "tle_line1": "1 39122U 13012A   25336.48639333  .00000007  00000+0  00000+0 0  9997",
        "tle_line2": "2 39122   0.0348  53.0625 0003109 199.2197 237.6188  1.00271790 46468"
      },
      "geometry": {
        "type": "Point",
        "coordinates": [
          -137.69488167458272,
          -0.0164517391887451
        ]
      }
    },
    {
      "type": "Feature",
      "properties": {
        "norad_id": 39163,
        "name": "EUTELSAT 7B",
        "group": "eutelsat",
        "lat": -0.002339594425612167,
        "lon": -13.847107355831257,
        "alt_km": 35770.99281135769,
        "timestamp": "2025-12-02T17:49:11.697151+00:00",
        "meta_object_name": "EUTELSAT 7B",
        "meta_object_id": "2013-022A",
        "meta_epoch": "2025-12-02T08:40:54.355008",
        "meta_mean_motion": 1.00272289,
        "meta_eccentricity": 0.0004322,
        "meta_inclination": 0.0677,
        "meta_ra_of_asc_node": 357.4878,
        "meta_arg_of_pericenter": 314.0993,
        "meta_mean_anomaly": 257.1171,
        "meta_ephemeris_type": 0,
        "meta_classification_type": "U",
        "meta_norad_cat_id": 39163,
        "meta_element_set_no": 999,
        "meta_rev_at_epoch": 4598,
        "meta_bstar": 0,
        "meta_mean_motion_dot": 6.9e-07,
        "meta_mean_motion_ddot": 0,
        "tle_line1": "1 39163U 13022A   25336.36174022  .00000069  00000+0  00000+0 0  9997",
        "tle_line2": "2 39163   0.0677 357.4878 0004322 314.0993 257.1171  1.00272289 45987"
      },
      "geometry": {
        "type": "Point",
        "coordinates": [
          -13.847107355831257,
          -0.002339594425612167
        ]
      }
    },
    {
      "type": "Feature",
      "properties": {
        "norad_id": 39612,
        "name": "EXPRESS-AT1",
        "group": "eutelsat",
        "lat": 0.03387009592974425,
        "lon": 35.11607338604859,
        "alt_km": 35787.337367075146,
        "timestamp": "2025-12-02T17:49:11.697180+00:00",
        "meta_object_name": "EXPRESS-AT1",
        "meta_object_id": "2014-010A",
        "meta_epoch": "2025-12-02T08:54:38.039904",
        "meta_mean_motion": 1.00269273,
        "meta_eccentricity": 3.93e-05,
        "meta_inclination": 0.0142,
        "meta_ra_of_asc_node": 280.8432,
        "meta_arg_of_pericenter": 225.203,
        "meta_mean_anomaly": 115.0989,
        "meta_ephemeris_type": 0,
        "meta_classification_type": "U",
        "meta_norad_cat_id": 39612,
        "meta_element_set_no": 999,
        "meta_rev_at_epoch": 4284,
        "meta_bstar": 0,
        "meta_mean_motion_dot": 9.9e-07,
        "meta_mean_motion_ddot": 0,
        "tle_line1": "1 39612U 14010A   25336.37127361  .00000099  00000+0  00000+0 0  9992",
        "tle_line2": "2 39612   0.0142 280.8432 0000393 225.2030 115.0989  1.00269273 42847"
      },
      "geometry": {
        "type": "Point",
        "coordinates": [
          35.11607338604859,
          0.03387009592974425
        ]
      }
    },
    {
      "type": "Feature",
      "properties": {
        "norad_id": 39613,
        "name": "EXPRESS-AT2",
        "group": "eutelsat",
        "lat": 0.005824925073460942,
        "lon": 118.97569716055308,
        "alt_km": 35790.93960970646,
        "timestamp": "2025-12-02T17:49:11.697195+00:00",
        "meta_object_name": "EXPRESS-AT2",
        "meta_object_id": "2014-010B",
        "meta_epoch": "2025-12-02T12:42:38.547648",
        "meta_mean_motion": 1.00272151,
        "meta_eccentricity": 0.0001203,
        "meta_inclination": 0.0173,
        "meta_ra_of_asc_node": 303.9792,
        "meta_arg_of_pericenter": 341.6992,
        "meta_mean_anomaly": 116.4801,
        "meta_ephemeris_type": 0,
        "meta_classification_type": "U",
        "meta_norad_cat_id": 39613,
        "meta_element_set_no": 999,
        "meta_rev_at_epoch": 4252,
        "meta_bstar": 0,
        "meta_mean_motion_dot": -2.6e-06,
        "meta_mean_motion_ddot": 0,
        "tle_line1": "1 39613U 14010B   25336.52961282 -.00000260  00000+0  00000+0 0  9999",
        "tle_line2": "2 39613   0.0173 303.9792 0001203 341.6992 116.4801  1.00272151 42521"
      },
      "geometry": {
        "type": "Point",
        "coordinates": [
          118.97569716055308,
          0.005824925073460942
        ]
      }
    }
  ]
}